{
    "links": {
        "self": "http://www.neowsapp.com/rest/v1/neo/3763974?api_key=iIulBulltgU6a56xZRHN4H3l9WmuAYTsLGpBGhQ2"
    },
    "id": "3763974",
    "neo_reference_id": "3763974",
    "name": "(2016 WV1)",
    "designation": "2016 WV1",
    "nasa_jpl_url": "http://ssd.jpl.nasa.gov/sbdb.cgi?sstr=3763974",
    "absolute_magnitude_h": 23.6,
    "estimated_diameter": {
        "kilometers": {
            "estimated_diameter_min": 0.0506471459,
            "estimated_diameter_max": 0.1132504611
        },
        "meters": {
            "estimated_diameter_min": 50.6471458835,
            "estimated_diameter_max": 113.2504610618
        },
        "miles": {
            "estimated_diameter_min": 0.0314706677,
            "estimated_diameter_max": 0.0703705522
        },
        "feet": {
            "estimated_diameter_min": 166.1651821003,
            "estimated_diameter_max": 371.5566426699
        }
    },
    "is_potentially_hazardous_asteroid": false,
    "close_approach_data": [
        {
            "close_approach_date": "2016-11-11",
            "close_approach_date_full": "2016-Nov-11 14:10",
            "epoch_date_close_approach": 1478873400000,
            "relative_velocity": {
                "kilometers_per_second": "18.0622365628",
                "kilometers_per_hour": "65024.0516261092",
                "miles_per_hour": "40403.4169673454"
            },
            "miss_distance": {
                "astronomical": "0.1043795009",
                "lunar": "40.6036258501",
                "kilometers": "15614951.006303083",
                "miles": "9702680.6360372254"
            },
            "orbiting_body": "Earth"
        }
    ],
    "orbital_data": {
        "orbit_id": "2",
        "orbit_determination_date": "2017-04-06 08:22:03",
        "first_observation_date": "2016-11-19",
        "last_observation_date": "2016-11-22",
        "data_arc_in_days": 3,
        "observations_used": 23,
        "orbit_uncertainty": "9",
        "minimum_orbit_intersection": ".0889986",
        "jupiter_tisserand_invariant": "4.386",
        "epoch_osculation": "2457712.5",
        "eccentricity": ".4149905630150714",
        "semi_major_axis": "1.467679305291727",
        "inclination": "29.51096818123388",
        "ascending_node_longitude": "56.46404691912948",
        "orbital_period": "649.4491949094373",
        "perihelion_distance": ".8586062440631446",
        "perihelion_argument": "284.4445198882408",
        "aphelion_distance": "2.07675236652031",
        "perihelion_time": "2457647.861531913365",
        "mean_anomaly": "35.8301291210831",
        "mean_motion": ".5543158769335303",
        "equinox": "J2000",
        "orbit_class": {
            "orbit_class_type": "APO",
            "orbit_class_description": "Near-Earth asteroid orbits which cross the Earth’s orbit similar to that of 1862 Apollo",
            "orbit_class_range": "a (semi-major axis) > 1.0 AU; q (perihelion) < 1.017 AU"
        }
    },
    "is_sentry_object": false
}